[Satellite]
VERSION=1.1
NAME=CZ-6A DEB
NICKNAME=CZ-6A DEB
TLE1=1 54635U 22151PM  22341.98303895  .00142691  00000+0  93630-2 0  9996
TLE2=2 54635  98.7985 349.4770 0270619 190.0698 169.5027 14.81788381  2521
STATUS=0
